start=new Date('2023-06-06T00:00:00.000Z').valueOf();
sats=[{"TLE_LINE1":"1 53773U 22111A   23156.89176925  .00000112  00000-0  25143-4 0  9999","ECCENTRICITY":"0.00012590","PERIOD":"95.438","COUNTRY_CODE":"US","APOAPSIS":"540.636","SITE":"AFETR","OBJECT_NAME":"STARLINK-4718","MEAN_MOTION_DDOT":"0.0000000000000","SEMIMAJOR_AXIS":"6917.900","MEAN_ANOMALY":"268.8694","OBJECT_ID":"2022-111A","NORAD_CAT_ID":"53773","OBJECT_TYPE":"PAYLOAD","FILE":"3925751","EPHEMERIS_TYPE":"0","REF_FRAME":"TEME","MEAN_ELEMENT_THEORY":"SGP4","BSTAR":"0.00002514300000","REV_AT_EPOCH":"4170","PERIAPSIS":"538.894","TIME_SYSTEM":"UTC","DECAY_DATE":null,"ARG_OF_PERICENTER":"91.2443","EPOCH":"2023-06-05T21:24:08.863200","MEAN_MOTION":"15.08833681","TLE_LINE2":"2 53773  53.2158 128.2238 0001259  91.2443 268.8694 15.08833681 41705","RA_OF_ASC_NODE":"128.2238","GP_ID":"233286612","ELEMENT_SET_NO":"999","CLASSIFICATION_TYPE":"U","LAUNCH_DATE":"2022-09-11","RCS_SIZE":"LARGE","INCLINATION":"53.2158","CENTER_NAME":"EARTH","MEAN_MOTION_DOT":"0.00000112"},{"ECCENTRICITY":"0.00008970","TLE_LINE1":"1 53774U 22111B   23156.62310228  .00000917  00000-0  75672-4 0  9992","APOAPSIS":"540.351","PERIOD":"95.437","COUNTRY_CODE":"US","OBJECT_ID":"2022-111B","NORAD_CAT_ID":"53774","SITE":"AFETR","OBJECT_NAME":"STARLINK-4719","MEAN_MOTION_DDOT":"0.0000000000000","SEMIMAJOR_AXIS":"6917.865","MEAN_ANOMALY":"281.3679","BSTAR":"0.00007567200000","PERIAPSIS":"539.110","REV_AT_EPOCH":"4152","OBJECT_TYPE":"PAYLOAD","FILE":"3925751","EPHEMERIS_TYPE":"0","REF_FRAME":"TEME","MEAN_ELEMENT_THEORY":"SGP4","TLE_LINE2":"2 53774  53.2150 129.3885 0000897  78.7414 281.3679 15.08844942 41528","DECAY_DATE":null,"TIME_SYSTEM":"UTC","ARG_OF_PERICENTER":"78.7414","MEAN_MOTION":"15.08844942","EPOCH":"2023-06-05T14:57:16.036992","ELEMENT_SET_NO":"999","RA_OF_ASC_NODE":"129.3885","GP_ID":"233286363","CENTER_NAME":"EARTH","INCLINATION":"53.2150","MEAN_MOTION_DOT":"0.00000917","CLASSIFICATION_TYPE":"U","LAUNCH_DATE":"2022-09-11","RCS_SIZE":"LARGE"},{"MEAN_ELEMENT_THEORY":"SGP4","REF_FRAME":"TEME","EPHEMERIS_TYPE":"0","OBJECT_TYPE":"PAYLOAD","FILE":"3925751","REV_AT_EPOCH":"4150","PERIAPSIS":"538.870","BSTAR":"0.00006172700000","MEAN_ANOMALY":"277.8688","MEAN_MOTION_DDOT":"0.0000000000000","SEMIMAJOR_AXIS":"6917.898","OBJECT_NAME":"STARLINK-4722","SITE":"AFETR","NORAD_CAT_ID":"53775","OBJECT_ID":"2022-111C","COUNTRY_CODE":"US","PERIOD":"95.438","APOAPSIS":"540.655","TLE_LINE1":"1 53775U 22111C   23156.58728476  .00000694  00000-0  61727-4 0  9994","ECCENTRICITY":"0.00012900","RCS_SIZE":"LARGE","LAUNCH_DATE":"2022-09-11","CLASSIFICATION_TYPE":"U","MEAN_MOTION_DOT":"0.00000694","INCLINATION":"53.2162","CENTER_NAME":"EARTH","GP_ID":"233285611","RA_OF_ASC_NODE":"119.9010","ELEMENT_SET_NO":"999","EPOCH":"2023-06-05T14:05:41.403264","MEAN_MOTION":"15.08834305","ARG_OF_PERICENTER":"82.2451","TIME_SYSTEM":"UTC","DECAY_DATE":null,"TLE_LINE2":"2 53775  53.2162 119.9010 0001290  82.2451 277.8688 15.08834305 41506"},{"DECAY_DATE":null,"TIME_SYSTEM":"UTC","ARG_OF_PERICENTER":"75.5487","MEAN_MOTION":"15.08831572","EPOCH":"2023-06-05T21:55:23.225664","TLE_LINE2":"2 53776  53.2162 123.3681 0001290  75.5487 284.5649 15.08831572 41767","RA_OF_ASC_NODE":"123.3681","GP_ID":"233285861","ELEMENT_SET_NO":"999","CLASSIFICATION_TYPE":"U","LAUNCH_DATE":"2022-09-11","RCS_SIZE":"LARGE","CENTER_NAME":"EARTH","INCLINATION":"53.2162","MEAN_MOTION_DOT":"-0.00000809","TLE_LINE1":"1 53776U 22111D   23156.91346326 -.00000809  00000-0 -32749-4 0  9994","ECCENTRICITY":"0.00012900","PERIOD":"95.438","COUNTRY_CODE":"US","APOAPSIS":"540.664","SITE":"AFETR","OBJECT_NAME":"STARLINK-4708","MEAN_MOTION_DDOT":"0.0000000000000","SEMIMAJOR_AXIS":"6917.906","MEAN_ANOMALY":"284.5649","OBJECT_ID":"2022-111D","NORAD_CAT_ID":"53776","OBJECT_TYPE":"PAYLOAD","FILE":"3925751","EPHEMERIS_TYPE":"0","REF_FRAME":"TEME","MEAN_ELEMENT_THEORY":"SGP4","BSTAR":"-0.00003274900000","REV_AT_EPOCH":"4176","PERIAPSIS":"538.879"},{"TLE_LINE2":"2 53777  53.2160 121.0439 0001117  92.1678 267.9442 15.08844143 41468","ARG_OF_PERICENTER":"92.1678","EPOCH":"2023-06-05T07:33:31.407840","MEAN_MOTION":"15.08844143","DECAY_DATE":null,"TIME_SYSTEM":"UTC","ELEMENT_SET_NO":"999","GP_ID":"233257651","RA_OF_ASC_NODE":"121.0439","MEAN_MOTION_DOT":"0.00001331","INCLINATION":"53.2160","CENTER_NAME":"EARTH","RCS_SIZE":"LARGE","CLASSIFICATION_TYPE":"U","LAUNCH_DATE":"2022-09-11","TLE_LINE1":"1 53777U 22111E   23156.31494685  .00001331  00000-0  10171-3 0  9994","ECCENTRICITY":"0.00011170","APOAPSIS":"540.505","PERIOD":"95.437","COUNTRY_CODE":"US","NORAD_CAT_ID":"53777","OBJECT_ID":"2022-111E","SEMIMAJOR_AXIS":"6917.868","MEAN_MOTION_DDOT":"0.0000000000000","MEAN_ANOMALY":"267.9442","SITE":"AFETR","OBJECT_NAME":"STARLINK-4664","PERIAPSIS":"538.960","REV_AT_EPOCH":"4146","BSTAR":"0.00010171000000","REF_FRAME":"TEME","MEAN_ELEMENT_THEORY":"SGP4","OBJECT_TYPE":"PAYLOAD","FILE":"3925691","EPHEMERIS_TYPE":"0"},{"COUNTRY_CODE":"US","PERIOD":"95.438","APOAPSIS":"540.436","TLE_LINE1":"1 53778U 22111F   23156.60700264 -.00000275  00000-0  79680-6 0  9990","ECCENTRICITY":"0.00009760","MEAN_ELEMENT_THEORY":"SGP4","REF_FRAME":"TEME","EPHEMERIS_TYPE":"0","FILE":"3925751","OBJECT_TYPE":"PAYLOAD","REV_AT_EPOCH":"4144","PERIAPSIS":"539.086","BSTAR":"0.00000079680000","MEAN_ANOMALY":"280.0265","SEMIMAJOR_AXIS":"6917.896","MEAN_MOTION_DDOT":"0.0000000000000","OBJECT_NAME":"STARLINK-4709","SITE":"AFETR","NORAD_CAT_ID":"53778","OBJECT_ID":"2022-111F","GP_ID":"233286863","RA_OF_ASC_NODE":"124.3047","ELEMENT_SET_NO":"999","EPOCH":"2023-06-05T14:34:05.028096","MEAN_MOTION":"15.08834830","ARG_OF_PERICENTER":"80.0837","DECAY_DATE":null,"TIME_SYSTEM":"UTC","TLE_LINE2":"2 53778  53.2151 124.3047 0000976  80.0837 280.0265 15.08834830 41444","RCS_SIZE":"LARGE","LAUNCH_DATE":"2022-09-11","CLASSIFICATION_TYPE":"U","MEAN_MOTION_DOT":"-0.00000275","CENTER_NAME":"EARTH","INCLINATION":"53.2151"},{"INCLINATION":"53.2156","CENTER_NAME":"EARTH","MEAN_MOTION_DOT":"-0.00000054","CLASSIFICATION_TYPE":"U","LAUNCH_DATE":"2022-09-11","RCS_SIZE":"LARGE","TLE_LINE2":"2 53779  53.2156 119.2379 0001313  88.4373 271.6770 15.08838896 41526","DECAY_DATE":null,"TIME_SYSTEM":"UTC","ARG_OF_PERICENTER":"88.4373","MEAN_MOTION":"15.08838896","EPOCH":"2023-06-05T17:00:32.302944","ELEMENT_SET_NO":"999","RA_OF_ASC_NODE":"119.2379","GP_ID":"233285112","OBJECT_ID":"2022-111G","NORAD_CAT_ID":"53779","SITE":"AFETR","OBJECT_NAME":"STARLINK-4706","SEMIMAJOR_AXIS":"6917.884","MEAN_MOTION_DDOT":"0.0000000000000","MEAN_ANOMALY":"271.6770","BSTAR":"0.00001471300000","REV_AT_EPOCH":"4152","PERIAPSIS":"538.840","FILE":"3925751","OBJECT_TYPE":"PAYLOAD","EPHEMERIS_TYPE":"0","REF_FRAME":"TEME","MEAN_ELEMENT_THEORY":"SGP4","ECCENTRICITY":"0.00013130","TLE_LINE1":"1 53779U 22111G   23156.70870721 -.00000054  00000-0  14713-4 0  9997","APOAPSIS":"540.657","PERIOD":"95.438","COUNTRY_CODE":"US"},{"GP_ID":"233258404","RA_OF_ASC_NODE":"121.0686","ELEMENT_SET_NO":"999","ARG_OF_PERICENTER":"93.4232","MEAN_MOTION":"15.08843401","EPOCH":"2023-06-05T07:38:49.950816","TIME_SYSTEM":"UTC","DECAY_DATE":null,"TLE_LINE2":"2 53780  53.2168 121.0686 0001222  93.4232 266.6900 15.08843401 41462","RCS_SIZE":"LARGE","CLASSIFICATION_TYPE":"U","LAUNCH_DATE":"2022-09-11","MEAN_MOTION_DOT":"0.00000589","CENTER_NAME":"EARTH","INCLINATION":"53.2168","PERIOD":"95.437","COUNTRY_CODE":"US","APOAPSIS":"540.580","TLE_LINE1":"1 53780U 22111H   23156.31863369  .00000589  00000-0  55113-4 0  9997","ECCENTRICITY":"0.00012220","REF_FRAME":"TEME","MEAN_ELEMENT_THEORY":"SGP4","FILE":"3925691","OBJECT_TYPE":"PAYLOAD","EPHEMERIS_TYPE":"0","REV_AT_EPOCH":"4146","PERIAPSIS":"538.890","BSTAR":"0.00005511300000","MEAN_MOTION_DDOT":"0.0000000000000","SEMIMAJOR_AXIS":"6917.870","MEAN_ANOMALY":"266.6900","SITE":"AFETR","OBJECT_NAME":"STARLINK-4678","NORAD_CAT_ID":"53780","OBJECT_ID":"2022-111H"},{"ELEMENT_SET_NO":"999","RA_OF_ASC_NODE":"119.4660","GP_ID":"233286613","TLE_LINE2":"2 53781  53.2161 119.4660 0001245  91.4238 268.6897 15.08840971 41510","DECAY_DATE":null,"TIME_SYSTEM":"UTC","ARG_OF_PERICENTER":"91.4238","EPOCH":"2023-06-05T15:09:14.132448","MEAN_MOTION":"15.08840971","CENTER_NAME":"EARTH","INCLINATION":"53.2161","MEAN_MOTION_DOT":"0.00000966","CLASSIFICATION_TYPE":"U","LAUNCH_DATE":"2022-09-11","RCS_SIZE":"LARGE","APOAPSIS":"540.604","PERIOD":"95.437","COUNTRY_CODE":"US","TLE_LINE1":"1 53781U 22111J   23156.63141357  .00000966  00000-0  78789-4 0  9992","ECCENTRICITY":"0.00012450","BSTAR":"0.00007878900000","PERIAPSIS":"538.881","REV_AT_EPOCH":"4151","FILE":"3925751","OBJECT_TYPE":"PAYLOAD","EPHEMERIS_TYPE":"0","REF_FRAME":"TEME","MEAN_ELEMENT_THEORY":"SGP4","OBJECT_ID":"2022-111J","NORAD_CAT_ID":"53781","SITE":"AFETR","OBJECT_NAME":"STARLINK-4462","MEAN_MOTION_DDOT":"0.0000000000000","SEMIMAJOR_AXIS":"6917.877","MEAN_ANOMALY":"268.6897"},{"APOAPSIS":"540.492","PERIOD":"95.438","COUNTRY_CODE":"US","ECCENTRICITY":"0.00010820","TLE_LINE1":"1 53782U 22111K   23156.30758115  .00000501  00000-0  49557-4 0  9999","REV_AT_EPOCH":"4146","PERIAPSIS":"538.995","BSTAR":"0.00004955700000","REF_FRAME":"TEME","MEAN_ELEMENT_THEORY":"SGP4","FILE":"3925691","OBJECT_TYPE":"PAYLOAD","EPHEMERIS_TYPE":"0","NORAD_CAT_ID":"53782","OBJECT_ID":"2022-111K","MEAN_MOTION_DDOT":"0.0000000000000","SEMIMAJOR_AXIS":"6917.879","MEAN_ANOMALY":"265.5202","SITE":"AFETR","OBJECT_NAME":"STARLINK-4679","ELEMENT_SET_NO":"999","GP_ID":"233257902","RA_OF_ASC_NODE":"120.9984","TLE_LINE2":"2 53782  53.2156 120.9984 0001082  94.5914 265.5202 15.08840589 41460","ARG_OF_PERICENTER":"94.5914","EPOCH":"2023-06-05T07:22:55.011360","MEAN_MOTION":"15.08840589","DECAY_DATE":null,"TIME_SYSTEM":"UTC","MEAN_MOTION_DOT":"0.00000501","CENTER_NAME":"EARTH","INCLINATION":"53.2156","RCS_SIZE":"LARGE","CLASSIFICATION_TYPE":"U","LAUNCH_DATE":"2022-09-11"}];
